OBJECT_NAME,OBJECT_ID,EPOCH,MEAN_MOTION,ECCENTRICITY,INCLINATION,RA_OF_ASC_NODE,ARG_OF_PERICENTER,MEAN_ANOMALY,EPHEMERIS_TYPE,CLASSIFICATION_TYPE,NORAD_CAT_ID,ELEMENT_SET_NO,REV_AT_EPOCH,BSTAR,MEAN_MOTION_DOT,MEAN_MOTION_DDOT
FLOCK 4BE-18,2024-149N,2026-06-26T11:46:16.393728,15.42140782,.00037422,97.3732,261.3183,199.2576,160.8531,0,U,60480,999,10374,.43701843E-3,.18654E-3,0
FLOCK 4BE-7,2024-149P,2026-06-26T04:22:29.819712,15.40667551,.00029022,97.3762,260.3291,201.2030,158.9097,0,U,60481,999,10363,.60619025E-3,.24689E-3,0
TOMORROW-S2,2024-149T,2026-06-26T12:03:10.940544,15.32878263,.00020409,97.3822,258.4431,204.3237,155.7910,0,U,60485,999,10351,.26265892E-3,.8263E-4,0
FLOCK 4BE-36,2024-149U,2026-06-26T04:44:12.008544,15.42984190,.00031747,97.3748,261.7345,211.9562,148.1494,0,U,60486,999,10374,.4161463E-3,.18265E-3,0
FLOCK 4BE-25,2024-149V,2026-06-26T04:34:57.082944,15.39053317,.00022186,97.3802,260.4030,185.7841,174.3379,0,U,60487,999,10362,.40494285E-3,.15594E-3,0
FLOCK 4BE-31,2024-149W,2026-06-26T03:43:41.947104,15.44423119,.00022223,97.3800,262.5760,201.1362,158.9795,0,U,60488,999,10376,.50750527E-3,.23415E-3,0
FLOCK 4BE-20,2024-149X,2026-06-26T11:37:15.006144,15.38286706,.00033597,97.3699,259.5535,207.7889,152.3177,0,U,60489,999,10364,.393008E-3,.14758E-3,0
FLOCK 4BE-23,2024-149Y,2026-06-26T11:26:33.620064,15.37891762,.00028262,97.3782,259.9279,211.6393,148.4683,0,U,60490,999,10362,.3758562E-3,.13928E-3,0
FLOCK 4BE-17,2024-149AA,2026-06-26T12:18:53.256096,15.40039225,.00029548,97.3777,260.9567,197.5227,162.5917,0,U,60492,999,10369,.40790592E-3,.16228E-3,0
NUSAT-50 (NANCY ROMAN),2024-149AB,2026-06-26T17:13:13.990656,15.30012216,.0004295,97.3790,258.9069,146.8454,213.3056,0,U,60493,999,10358,.31572E-3,.91E-4,0
FLOCK 4BE-22,2024-149AC,2026-06-26T16:20:40.811424,15.41438378,.0003163,97.3737,261.3328,211.1858,148.9202,0,U,60494,999,10376,.36349E-3,.15134E-3,0
FLOCK 4BE-34,2024-149AD,2026-06-26T12:05:03.069600,15.41414784,.000296,97.3788,261.9823,219.3908,140.7124,0,U,60495,999,10376,.38488E-3,.16019E-3,0
TYCHE,2024-149AE,2026-06-26T17:01:34.217184,15.25827917,.0001622,97.3759,255.3988,222.9417,137.1695,0,U,60496,999,10335,.17531E-3,.4412E-4,0
FLOCK 4BE-32,2024-149AF,2026-06-26T17:24:38.449728,15.42463858,.0003266,97.3727,261.7569,214.3429,145.7608,0,U,60497,999,10380,.41938E-3,.18089E-3,0
NUSAT-48 (HENRIETTA LEAVITT),2024-149AG,2026-06-26T15:22:37.801920,15.30013884,.0002883,97.3924,259.0909,225.2349,134.8658,0,U,60498,999,10358,.32814E-3,.946E-4,0
FLOCK 4BE-30,2024-149AH,2026-06-26T16:48:47.155392,15.58935257,.0005446,97.3778,263.5541,224.6322,135.4496,0,U,60499,999,10325,.17381E-2,.136883E-2,0
NUSAT-49 (KLARA DAN VON NEUMANN),2024-149AJ,2026-06-26T16:24:30.250080,15.30092702,.0000746,97.3785,258.9056,240.8990,119.2176,0,U,60500,999,10358,.30417E-3,.8784E-4,0
FLOCK 4BE-11,2024-149AK,2026-06-26T17:09:36.643680,15.43279935,.0003435,97.3697,261.9846,218.9170,141.1830,0,U,60501,999,10382,.41235E-3,.18279E-3,0
YAM-7,2024-149AN,2026-06-26T11:07:38.178912,15.31938745,.0001938,97.3791,257.6759,246.5073,113.5965,0,U,60504,999,10347,.26149E-3,.7987E-4,0
FLOCK 4BE-24,2024-149AP,2026-06-26T16:49:16.076064,15.43413411,.0003451,97.3727,262.2311,232.6021,127.4913,0,U,60505,999,10383,.42821E-3,.19073E-3,0
LUR-1,2024-149AQ,2026-06-26T17:25:20.064288,15.30221886,.0002532,97.3743,256.4853,266.6103,93.4848,0,U,60506,999,10343,.23064E-3,.6668E-4,0
TANAGER-1,2024-149AR,2026-06-26T05:28:27.687936,15.44774321,.0003064,97.2417,271.4593,272.0111,88.0787,0,U,60507,999,10443,.23946E-4,.1034E-4,0
EAGLEEYE,2024-149AS,2026-06-26T17:17:10.858848,15.72705216,.0004822,97.3721,271.5956,216.1185,143.9754,0,U,60508,999,10443,.77582E-3,.105282E-2,0
FLOCK 4BE-29,2024-149AT,2026-06-26T16:55:30.241632,15.44442397,.000187,97.3820,263.7230,232.1841,127.9238,0,U,60509,999,10388,.37447E-3,.17251E-3,0
TRANSPORTER-11 OBJECT AU,2024-149AU,2026-06-26T11:27:46.871712,15.40467866,.000257,97.3734,261.2729,237.7489,122.3508,0,U,60510,999,10374,.37538E-3,.15137E-3,0
FLOCK 4BE-2,2024-149AV,2026-06-26T17:21:22.154112,15.53741263,.0004169,97.3837,265.2964,221.5662,138.5275,0,U,60511,999,10398,.916E-3,.58926E-3,0
FLOCK 4BE-13,2024-149AW,2026-06-26T16:41:07.937664,15.42132490,.0003549,97.3724,262.2063,216.8332,143.2672,0,U,60512,999,10383,.32363E-3,.13779E-3,0
FLOCK 4BE-27,2024-149AX,2026-06-26T17:09:36.842400,15.34606291,.0002379,97.3830,259.5710,260.3506,99.7468,0,U,60513,999,10360,.28782E-3,.9574E-4,0
