FLOCK 4BE-18            
1 60480U 24149N   26177.49046752  .00018654  00000+0  43702-3 0  9990
2 60480  97.3732 261.3183 0003742 199.2576 160.8531 15.42140782103743
FLOCK 4BE-7             
1 60481U 24149P   26177.18228958  .00024689  00000+0  60619-3 0  9998
2 60481  97.3762 260.3291 0002902 201.2030 158.9097 15.40667551103631
TOMORROW-S2             
1 60485U 24149T   26177.50220996  .00008263  00000+0  26266-3 0  9992
2 60485  97.3822 258.4431 0002040 204.3237 155.7910 15.32878263103513
FLOCK 4BE-36            
1 60486U 24149U   26177.19736121  .00018265  00000+0  41615-3 0  9998
2 60486  97.3748 261.7345 0003174 211.9562 148.1494 15.42984190103742
FLOCK 4BE-25            
1 60487U 24149V   26177.19093846  .00015594  00000+0  40494-3 0  9995
2 60487  97.3802 260.4030 0002218 185.7841 174.3379 15.39053317103621
FLOCK 4BE-31            
1 60488U 24149W   26177.15534661  .00023415  00000+0  50751-3 0  9995
2 60488  97.3800 262.5760 0002222 201.1362 158.9795 15.44423119103761
FLOCK 4BE-20            
1 60489U 24149X   26177.48420146  .00014758  00000+0  39301-3 0  9992
2 60489  97.3699 259.5535 0003359 207.7889 152.3177 15.38286706103643
FLOCK 4BE-23            
1 60490U 24149Y   26177.47677801  .00013928  00000+0  37586-3 0  9996
2 60490  97.3782 259.9279 0002826 211.6393 148.4683 15.37891762103628
FLOCK 4BE-17            
1 60492U 24149AA  26177.51311639  .00016228  00000+0  40791-3 0  9995
2 60492  97.3777 260.9567 0002954 197.5227 162.5917 15.40039225103692
NUSAT-50 (NANCY ROMAN)  
1 60493U 24149AB  26177.71752304  .00009100  00000+0  31572-3 0  9994
2 60493  97.3790 258.9069 0004295 146.8454 213.3056 15.30012216103588
FLOCK 4BE-22            
1 60494U 24149AC  26177.68102791  .00015134  00000+0  36349-3 0  9991
2 60494  97.3737 261.3328 0003163 211.1858 148.9202 15.41438378103762
FLOCK 4BE-34            
1 60495U 24149AD  26177.50350775  .00016019  00000+0  38488-3 0  9999
2 60495  97.3788 261.9823 0002960 219.3908 140.7124 15.41414784103763
TYCHE                   
1 60496U 24149AE  26177.70942381  .00004412  00000+0  17531-3 0  9992
2 60496  97.3759 255.3988 0001622 222.9417 137.1695 15.25827917103356
FLOCK 4BE-32            
1 60497U 24149AF  26177.72544502  .00018089  00000+0  41938-3 0  9991
2 60497  97.3727 261.7569 0003266 214.3429 145.7608 15.42463858103800
NUSAT-48 (HENRIETTA LE*)
1 60498U 24149AG  26177.64071530  .00009460  00000+0  32814-3 0  9995
2 60498  97.3924 259.0909 0002883 225.2349 134.8658 15.30013884103580
FLOCK 4BE-30            
1 60499U 24149AH  26177.70054578  .00136883  00000+0  17381-2 0  9997
2 60499  97.3778 263.5541 0005446 224.6322 135.4496 15.58935257103250
NUSAT-49 (KLARA DAN VO*)
1 60500U 24149AJ  26177.68368345  .00008784  00000+0  30417-3 0  9991
2 60500  97.3785 258.9056 0000746 240.8990 119.2176 15.30092702103589
FLOCK 4BE-11            
1 60501U 24149AK  26177.71500745  .00018279  00000+0  41235-3 0  9998
2 60501  97.3697 261.9846 0003435 218.9170 141.1830 15.43279935103824
YAM-7                   
1 60504U 24149AN  26177.46363633  .00007987  00000+0  26149-3 0  9997
2 60504  97.3791 257.6759 0001938 246.5073 113.5965 15.31938745103473
FLOCK 4BE-24            
1 60505U 24149AP  26177.70088051  .00019073  00000+0  42821-3 0  9997
2 60505  97.3727 262.2311 0003451 232.6021 127.4913 15.43413411103838
LUR-1                   
1 60506U 24149AQ  26177.72592667  .00006668  00000+0  23064-3 0  9997
2 60506  97.3743 256.4853 0002532 266.6103  93.4848 15.30221886103434
TANAGER-1               
1 60507U 24149AR  26177.22809824  .00001034  00000+0  23946-4 0  9991
2 60507  97.2417 271.4593 0003064 272.0111  88.0787 15.44774321104436
EAGLEEYE                
1 60508U 24149AS  26177.72026457  .00105282  00000+0  77582-3 0  9994
2 60508  97.3721 271.5956 0004822 216.1185 143.9754 15.72705216104436
FLOCK 4BE-29            
1 60509U 24149AT  26177.70521113  .00017251  00000+0  37447-3 0  9996
2 60509  97.3820 263.7230 0001870 232.1841 127.9238 15.44442397103886
TRANSPORTER-11 OBJECT AU
1 60510U 24149AU  26177.47762583  .00015137  00000+0  37538-3 0  9992
2 60510  97.3734 261.2729 0002570 237.7489 122.3508 15.40467866103743
FLOCK 4BE-2             
1 60511U 24149AV  26177.72317308  .00058926  00000+0  91600-3 0  9995
2 60511  97.3837 265.2964 0004169 221.5662 138.5275 15.53741263103989
FLOCK 4BE-13            
1 60512U 24149AW  26177.69523076  .00013779  00000+0  32363-3 0  9991
2 60512  97.3724 262.2063 0003549 216.8332 143.2672 15.42132490103836
FLOCK 4BE-27            
1 60513U 24149AX  26177.71500975  .00009574  00000+0  28782-3 0  9996
2 60513  97.3830 259.5710 0002379 260.3506  99.7468 15.34606291103609
